norad_id,name,regime,epoch,line1,line2,inclination,eccentricity,mean_motion,raan,arg_pericenter,mean_anomaly
20083,RADUGA 1-1,EGO,24026.02063382,1 20083U 89048A   24026.02063382 -.00000071  00000-0  00000+0 0  1541\,2 20083  13.6376 341.1952 0021335 131.1299  48.3793  0.98709053122646,13.6376,0.0021335,0.98709053,341.1952,131.1299,48.3793
20083,RADUGA 1-1,EGO,24026.55316891,1 20083U 89048A   24026.55316891 -.00000084  00000-0  00000-0 0    11\,2 20083  13.6370 341.1913 0021337 131.1243 237.6289  0.98709287122662,13.637,0.0021337,0.98709287,341.1913,131.1243,237.6289
20083,RADUGA 1-1,EGO,24027.05398289,1 20083U 89048A   24027.05398289 -.00000097  00000-0  00000-0 0    12\,2 20083  13.6365 341.1877 0021331 131.1335  55.5915  0.98709501122663,13.6365,0.0021331,0.98709501,341.1877,131.1335,55.5915
20083,RADUGA 1-1,EGO,24028.07479824,1 20083U 89048A   24028.07479824 -.00000122  00000-0  00000+0 0  1558\,2 20083  13.6354 341.1804 0021325 131.1336  58.3546  0.98709908122667,13.6354,0.0021325,0.98709908,341.1804,131.1336,58.3546
20083,RADUGA 1-1,EGO,24029.10188267,1 20083U 89048A   24029.10188267 -.00000146  00000-0  00000-0 0    18\,2 20083  13.6343 341.1731 0021315 131.1376  63.3426  0.98710255122689,13.6343,0.0021315,0.98710255,341.1731,131.1376,63.3426
20083,RADUGA 1-1,EGO,24030.05854641,1 20083U 89048A   24030.05854641 -.00000166  00000-0  00000-0 0    12\,2 20083  13.6332 341.1663 0021304 131.1332  43.3144  0.98710509122699,13.6332,0.0021304,0.98710509,341.1663,131.1332,43.3144
20083,RADUGA 1-1,EGO,24031.05998728,1 20083U 89048A   24031.05998728 -.00000184  00000-0  00000+0 0  1568\,2 20083  13.6322 341.1591 0021291 131.1244  39.2044  0.98710718122690,13.6322,0.0021291,0.98710718,341.1591,131.1244,39.2044
20083,RADUGA 1-1,EGO,24031.12271639,1 20083U 89048A   24031.12271639 -.00000185  00000-0  00000-0 0    12\,2 20083  13.6321 341.1586 0021291 131.1260  61.4948  0.98710728122704,13.6321,0.0021291,0.98710728,341.1586,131.126,61.4948
20083,RADUGA 1-1,EGO,24031.63207465,1 20083U 89048A   24031.63207465 -.00000192  00000-0  00000-0 0    12\,2 20083  13.6315 341.1550 0021277 131.1282 242.5031  0.98710805122718,13.6315,0.0021277,0.98710805,341.155,131.1282,242.5031
20083,RADUGA 1-1,EGO,24032.06149829,1 20083U 89048A   24032.06149829 -.00000198  00000-0  00000-0 0    15\,2 20083  13.6311 341.1519 0021277 131.1054  35.1302  0.98710853122716,13.6311,0.0021277,0.98710853,341.1519,131.1054,35.1302
20083,RADUGA 1-1,EGO,24033.13445000,1 20083U 89048A   24033.13445000 -.00000210  00000-0  00000-0 0    19\,2 20083  13.6299 341.1442 0021264 131.0763  56.4541  0.98710902122725,13.6299,0.0021264,0.98710902,341.1442,131.0763,56.4541
20083,RADUGA 1-1,EGO,24034.14910527,1 20083U 89048A   24034.14910527 -.00000216  00000-0  00000-0 0    18\,2 20083  13.6288 341.1368 0021252 131.0432  57.0656  0.98710870122739,13.6288,0.0021252,0.9871087,341.1368,131.0432,57.0656
20083,RADUGA 1-1,EGO,24035.15674525,1 20083U 89048A   24035.15674525 -.00000219  00000-0  00000-0 0    18\,2 20083  13.6278 341.1294 0021240 131.0103  55.1833  0.98710755122747,13.6278,0.002124,0.98710755,341.1294,131.0103,55.1833
20083,RADUGA 1-1,EGO,24037.18938196,1 20083U 89048A   24037.18938196 -.00000213  00000-0  00000-0 0    14\,2 20083  13.6257 341.1144 0021228 130.8993  57.6317  0.98710352122767,13.6257,0.0021228,0.98710352,341.1144,130.8993,57.6317
20083,RADUGA 1-1,EGO,24037.71248924,1 20083U 89048A   24037.71248924 -.00000209  00000-0  00000-0 0    11\,2 20083  13.6251 341.1105 0021224 130.8464 243.5796  0.98710191122776,13.6251,0.0021224,0.98710191,341.1105,130.8464,243.5796
20083,RADUGA 1-1,EGO,24038.16438501,1 20083U 89048A   24038.16438501 -.00000205  00000-0  00000-0 0    19\,2 20083  13.6247 341.1072 0021230 130.8016  44.2138  0.98710061122776,13.6247,0.002123,0.98710061,341.1072,130.8016,44.2138
20083,RADUGA 1-1,EGO,24039.21489108,1 20083U 89048A   24039.21489108 -.00000193  00000-0  00000-0 0    11\,2 20083  13.6236 341.0994 0021237 130.7332  57.5977  0.98709727122789,13.6236,0.0021237,0.98709727,341.0994,130.7332,57.5977
20083,RADUGA 1-1,EGO,24039.71554133,1 20083U 89048A   24039.71554133 -.00000187  00000-0  00000-0 0    10\,2 20083  13.6231 341.0957 0021234 130.7464 235.4990  0.98709558122791,13.6231,0.0021234,0.98709558,341.0957,130.7464,235.499
20083,RADUGA 1-1,EGO,24040.21616316,1 20083U 89048A   24040.21616316 -.00000179  00000-0  00000-0 0    10\,2 20083  13.6226 341.0919 0021240 130.7044  53.4448  0.98709385122798,13.6226,0.002124,0.98709385,341.0919,130.7044,53.4448
20083,RADUGA 1-1,EGO,24041.35327244,1 20083U 89048A   24041.35327244 -.00000159  00000-0  00000-0 0    13\,2 20083  13.6215 341.0835 0021259 130.6343  97.6034  0.98708976122802,13.6215,0.0021259,0.98708976,341.0835,130.6343,97.6034
20083,RADUGA 1-1,EGO,24042.26438505,1 20083U 89048A   24042.26438505 -.00000142  00000-0  00000-0 0    19\,2 20083  13.6206 341.0768 0021270 130.5922  61.4214  0.98708648122818,13.6206,0.002127,0.98708648,341.0768,130.5922,61.4214
20083,RADUGA 1-1,EGO,24043.34289535,1 20083U 89048A   24043.34289535 -.00000119  00000-0  00000-0 0    10\,2 20083  13.6195 341.0689 0021294 130.5573  84.7186  0.98708293122828,13.6195,0.0021294,0.98708293,341.0689,130.5573,84.7186
20083,RADUGA 1-1,EGO,24044.33579260,1 20083U 89048A   24044.33579260 -.00000097  00000-0  00000-0 0    12\,2 20083  13.6185 341.0617 0021317 130.5274  77.5854  0.98707977122833,13.6185,0.0021317,0.98707977,341.0617,130.5274,77.5854
20083,RADUGA 1-1,EGO,24045.29465591,1 20083U 89048A   24045.29465591 -.00000075  00000-0  00000-0 0    15\,2 20083  13.6175 341.0546 0021336 130.5110  58.3431  0.98707701122847,13.6175,0.0021336,0.98707701,341.0546,130.511,58.3431
20083,RADUGA 1-1,EGO,24045.36236831,1 20083U 89048A   24045.36236831 -.00000074  00000-0  00000-0 0    15\,2 20083  13.6175 341.0542 0021337 130.5098  82.4064  0.98707681122846,13.6175,0.0021337,0.98707681,341.0542,130.5098,82.4064
20083,RADUGA 1-1,EGO,24046.33938244,1 20083U 89048A   24046.33938244 -.00000053  00000-0  00000+0 0  1635\,2 20083  13.6165 341.0470 0021365 130.4964  69.6105  0.98707451122845,13.6165,0.0021365,0.98707451,341.047,130.4964,69.6105
20083,RADUGA 1-1,EGO,24046.53681706,1 20083U 89048A   24046.53681706 -.00000048  00000-0  00000-0 0    11\,2 20083  13.6162 341.0456 0021373 130.4844 139.7824  0.98707405122859,13.6162,0.0021373,0.98707405,341.0456,130.4844,139.7824
20083,RADUGA 1-1,EGO,24047.32271591,1 20083U 89048A   24047.32271591 -.00000033  00000-0  00000-0 0    10\,2 20083  13.6154 341.0399 0021398 130.5183  59.0232  0.98707247122862,13.6154,0.0021398,0.98707247,341.0399,130.5183,59.0232
20083,RADUGA 1-1,EGO,24048.39106140,1 20083U 89048A   24048.39106140 -.00000014  00000-0  00000-0 0    14\,2 20083  13.6142 341.0322 0021426 130.5185  78.6675  0.98707111122878,13.6142,0.0021426,0.98707111,341.0322,130.5185,78.6675
20083,RADUGA 1-1,EGO,24049.41501668,1 20083U 89048A   24049.41501668  .00000000  00000-0  00000-0 0    16\,2 20083  13.6131 341.0247 0021448 130.5318  82.5240  0.98707053122882,13.6131,0.0021448,0.98707053,341.0247,130.5318,82.524
20083,RADUGA 1-1,EGO,24050.40757896,1 20083U 89048A   24050.40757896  .00000011  00000-0  00000-0 0    15\,2 20083  13.6121 341.0175 0021465 130.5569  75.2120  0.98707047122898,13.6121,0.0021465,0.98707047,341.0175,130.5569,75.212
20083,RADUGA 1-1,EGO,24051.37814263,1 20083U 89048A   24051.37814263  .00000017  00000-0  00000-0 0    10\,2 20083  13.6111 341.0104 0021477 130.5809  60.0843  0.98707112122908,13.6111,0.0021477,0.98707112,341.0104,130.5809,60.0843
20083,RADUGA 1-1,EGO,24052.42863524,1 20083U 89048A   24052.42863524  .00000019  00000-0  00000-0 0    13\,2 20083  13.6100 341.0028 0021483 130.6061  73.3588  0.98707256122912,13.61,0.0021483,0.98707256,341.0028,130.6061,73.3588
20083,RADUGA 1-1,EGO,24053.45676135,1 20083U 89048A   24053.45676135  .00000016  00000-0  00000-0 0    14\,2 20083  13.6089 340.9955 0021496 130.6146  78.7026  0.98707468122925,13.6089,0.0021496,0.98707468,340.9955,130.6146,78.7026
20083,RADUGA 1-1,EGO,24054.46739663,1 20083U 89048A   24054.46739663  .00000008  00000-0  00000-0 0    13\,2 20083  13.6079 340.9883 0021499 130.6336  77.8211  0.98707738122935,13.6079,0.0021499,0.98707738,340.9883,130.6336,77.8211
20083,RADUGA 1-1,EGO,24055.46319510,1 20083U 89048A   24055.46319510 -.00000003  00000-0  00000-0 0    15\,2 20083  13.6068 340.9812 0021502 130.6397  71.6812  0.98708060122946,13.6068,0.0021502,0.9870806,340.9812,130.6397,71.6812
20083,RADUGA 1-1,EGO,24056.45299868,1 20083U 89048A   24056.45299868 -.00000019  00000-0  00000-0 0    15\,2 20083  13.6058 340.9742 0021500 130.6503  63.4078  0.98708427122955,13.6058,0.00215,0.98708427,340.9742,130.6503,63.4078
20083,RADUGA 1-1,EGO,24057.46473097,1 20083U 89048A   24057.46473097 -.00000038  00000-0  00000-0 0    16\,2 20083  13.6047 340.9670 0021497 130.6590  62.9303  0.98708837122965,13.6047,0.0021497,0.98708837,340.967,130.659,62.9303
20083,RADUGA 1-1,EGO,24058.52628187,1 20083U 89048A   24058.52628187 -.00000063  00000-0  00000-0 0    14\,2 20083  13.6036 340.9595 0021487 130.6809  80.1445  0.98709275122978,13.6036,0.0021487,0.98709275,340.9595,130.6809,80.1445
20083,RADUGA 1-1,EGO,24059.46480677,1 20083U 89048A   24059.46480677 -.00000086  00000-0  00000-0 0    13\,2 20083  13.6026 340.9528 0021479 130.6775  53.6666  0.98709672122988,13.6026,0.0021479,0.98709672,340.9528,130.6775,53.6666
20083,RADUGA 1-1,EGO,24060.48452086,1 20083U 89048A   24060.48452086 -.00000113  00000-0  00000-0 0    11\,2 20083  13.6015 340.9456 0021454 130.7203  55.9963  0.98710099122997,13.6015,0.0021454,0.98710099,340.9456,130.7203,55.9963
20083,RADUGA 1-1,EGO,24061.56296365,1 20083U 89048A   24061.56296365 -.00000143  00000-0  00000+0 0  1706\,2 20083  13.6004 340.9379 0021447 130.7126  79.2483  0.98710516122995,13.6004,0.0021447,0.98710516,340.9379,130.7126,79.2483
